SAUDISAT 2              
1 28371U 04025F   26154.56584791  .00000343  00000+0  87638-4 0  9990
2 28371  98.5505 154.1960 0024284 341.4783  18.5528 14.56675406163767
COSMOS 2407             
1 28380U 04028A   26154.40536611  .00000069  00000+0  55242-4 0  9995
2 28380  82.9606  85.0406 0037888 291.9152 161.7469 13.76333553 97986
COSMOS 2414             
1 28521U 05002A   26154.83952304  .00000088  00000+0  60334-4 0  9992
2 28521  82.9507  53.7429 0040412   9.5848 350.6077 13.87925434 81964
INMARSAT 4-F1           
1 28628U 05009A   26154.88742926  .00000043  00000+0  00000+0 0  9999
2 28628   5.1502  42.7333 0003020  33.1390 314.0613  1.00272499 77531
SJ-7                    
1 28737U 05024A   26154.60799634  .00008928  00000+0  40040-3 0  9997
2 28737  97.7288 184.3480 0017358  81.5837 278.7365 15.21323292145967
CUBESAT XI-V            
1 28895U 05043F   26152.36703129  .00001677  00000+0  27161-3 0  9991
2 28895  98.2967 307.6587 0012837 254.1655 105.8136 14.72584583 99425
HINODE (SOLAR-B)        
1 29479U 06041A   26154.89958958  .00000858  00000+0  15587-3 0  9990
2 29479  98.0548 171.2481 0016725 334.8509  25.1880 14.68603120 52927
SHIJIAN-6 02B (SJ-6 02B)
1 29506U 06046B   26154.95012654  .00001396  00000+0  11290-3 0  9992
2 29506  97.7155 184.0899 0014231  99.3003 260.9832 15.01339889 68755
DMSP 5D-3 F17 (USA 191) 
1 29522U 06050A   26154.87595827  .00000047  00000+0  46351-4 0  9993
2 29522  98.7378 161.7184 0011325  93.3870 266.8600 14.14990990 10548
LAPAN-TUBSAT            
1 29709U 07001A   26154.92135800  .00000043  00000+0  11574-4 0  9999
2 29709  98.1337 153.8465 0010937 225.3275 134.7049 14.85934847 49181
HAIYANG-1B              
1 31113U 07010A   26154.58027472  .00000100  00000+0  54012-4 0  9996
2 31113  98.3489 136.9535 0012340 239.3242 120.6726 14.31023350998685
COSMO-SKYMED 2          
1 32376U 07059A   26154.92897260  .00000449  00000+0  62989-4 0  9997
2 32376  97.8884 338.7195 0001463  87.9261 272.2120 14.82160034    49
CARTOSAT-2A             
1 32783U 08021A   26154.92355899  .00000824  00000+0  11762-3 0  9995
2 32783  97.7636 204.0843 0012371 148.1042 212.0922 14.79218471976844
CUTE-1.7+APD II (CO-65) 
1 32785U 08021C   26154.85749853  .00005176  00000+0  32833-3 0  9993
2 32785  97.8272 136.0010 0010729  77.7749 282.4680 15.09317306983187
SEEDS II (CO-66)        
1 32791U 08021J   26154.55442507  .00020146  00000+0  64842-3 0  9992
2 32791  97.7515 151.8069 0002991  42.0128 318.1342 15.32257900985206
YUBILEINY (RS30)        
1 32953U 08025A   26154.98054081  .00000025  00000+0  11266-3 0  9995
2 32953  82.5045   3.6571 0019415 343.3825  16.6616 12.43178796818054
FENGYUN 3A              
1 32958U 08026A   26154.44398347  .00000099  00000+0  67514-4 0  9997
2 32958  98.6881  95.5346 0008990 160.5127 199.6395 14.19568113933454
HUANJING 1A (HJ-1A)     
1 33320U 08041A   26154.95037215  .00000717  00000+0  92194-4 0  9997
2 33320  97.6677 141.3013 0018725 177.1085 183.0241 14.83953791956447
HUANJING 1B (HJ-1B)     
1 33321U 08041B   26154.98094054  .00000649  00000+0  84829-4 0  9995
2 33321  97.6511 144.5418 0035010 225.3679 134.4680 14.83291634956459
SHIJIAN-6 03A (SJ-6 03A)
1 33408U 08053A   26154.92343221  .00005932  00000+0  30299-3 0  9992
2 33408  97.8413 187.7835 0012826  62.2230 298.0301 15.17027839960950
SHIJIAN-6 03B (SJ-6 03B)
1 33409U 08053B   26154.92929227  .00002170  00000+0  15991-3 0  9992
2 33409  97.8575 174.6004 0020699  85.9848 274.3743 15.04269937960755
